NORAD_CAT_ID,OBJECT_NAME,OBJECT_TYPE,EPOCH,MEAN_MOTION,ECCENTRICITY,INCLINATION,RA_OF_ASC_NODE,ARG_OF_PERICENTER,MEAN_ANOMALY,BSTAR,MEAN_MOTION_DOT,MEAN_MOTION_DDOT,TLE_LINE0,TLE_LINE1,TLE_LINE2,SEMIMAJOR_AXIS,PERIOD,APOGEE,PERIGEE,DECAYED
53886.0,STARLINK-5028,PAYLOAD,2023-04-28 07:27:18,15.08869706,7.21e-05,53.2183,341.7327,90.7227,269.3848,0.00055966,8.638e-05,0.0,0 STARLINK-5028,1 53886U 22119A   23118.31063397  .00008638  00000-0  55966-3 0  9991,2 53886  53.2183 341.7327 0000721  90.7227 269.3848 15.08869706 33712,6917.79,95.436,540.153,539.156,0.0
53886.0,STARLINK-5028,PAYLOAD,2023-04-28 15:24:14,15.0885642,0.0002242,53.2182,340.2462,88.024,272.1009,-1.5427e-05,-5.34e-06,0.0,0 STARLINK-5028,1 53886U 22119A   23118.64183691 -.00000534  00000-0 -15427-4 0  9995,2 53886  53.2182 340.2462 0002242  88.0240 272.1009 15.08856420 33349,6917.83,95.437,541.246,538.144,0.0
53886.0,STARLINK-5028,PAYLOAD,2023-04-29 00:56:33,15.08840564,0.0001267,53.2167,338.4612,99.8958,260.2177,-0.00025672,-4.371e-05,0.0,0 STARLINK-5028,1 53886U 22119A   23119.03928048 -.00004371  00000-0 -25672-3 0  9997,2 53886  53.2167 338.4612 0001267  99.8958 260.2177 15.08840564 33403,6917.879,95.438,540.62,538.867,0.0
53886.0,STARLINK-5028,PAYLOAD,2023-04-30 13:30:26,15.0883898,0.0001349,53.2168,331.6226,94.3363,265.7783,0.00023808,3.503e-05,0.0,0 STARLINK-5028,1 53886U 22119A   23120.56280694  .00003503  00000-0  23808-3 0  9998,2 53886  53.2168 331.6226 0001349  94.3363 265.7783 15.08838980 34055,6917.884,95.438,540.682,538.815,0.0
53886.0,STARLINK-5028,PAYLOAD,2023-04-30 18:16:36,15.08837786,9.88e-05,53.2177,330.7294,91.1472,268.9633,0.00021435,3.125e-05,0.0,0 STARLINK-5028,1 53886U 22119A   23120.76152821  .00003125  00000-0  21435-3 0  9994,2 53886  53.2177 330.7294 0000988  91.1472 268.9633 15.08837786 33662,6917.887,95.438,540.436,539.069,0.0
53886.0,STARLINK-5028,PAYLOAD,2023-05-01 13:21:13,15.08837248,0.0001052,53.2162,327.1595,94.2612,265.85,0.0001277,1.745e-05,0.0,0 STARLINK-5028,1 53886U 22119A   23121.55641079  .00001745  00000-0  12770-3 0  9998,2 53886  53.2162 327.1595 0001052  94.2612 265.8500 15.08837248 34206,6917.889,95.438,540.482,539.026,0.0
53886.0,STARLINK-5028,PAYLOAD,2023-05-01 21:18:09,15.08840411,0.0001013,53.2166,325.6728,88.2401,271.8707,0.00014149,1.965e-05,0.0,0 STARLINK-5028,1 53886U 22119A   23121.88761109  .00001965  00000-0  14149-3 0  9997,2 53886  53.2166 325.6728 0001013  88.2401 271.8707 15.08840411 34254,6917.879,95.438,540.445,539.043,0.0
53886.0,STARLINK-5028,PAYLOAD,2023-05-01 22:53:32,15.08842336,0.0001011,53.2168,325.3756,86.1774,273.9334,0.00016327,2.312e-05,0.0,0 STARLINK-5028,1 53886U 22119A   23121.95385021  .00002312  00000-0  16327-3 0  9997,2 53886  53.2168 325.3756 0001011  86.1774 273.9334 15.08842336 33843,6917.873,95.437,540.438,539.039,0.0
53886.0,STARLINK-5028,PAYLOAD,2023-05-02 13:12:00,15.08842529,0.0001,53.2168,322.6994,83.5721,276.5385,0.00016003,2.26e-05,0.0,0 STARLINK-5028,1 53886U 22119A   23122.55001111  .00002260  00000-0  16003-3 0  9992,2 53886  53.2168 322.6994 0001000  83.5721 276.5385 15.08842529 34354,6917.873,95.437,540.429,539.046,0.0
53886.0,STARLINK-5028,PAYLOAD,2023-05-02 19:33:33,15.08846083,0.0001036,53.2167,321.51,82.6384,277.4726,0.00019887,2.879e-05,0.0,0 STARLINK-5028,1 53886U 22119A   23122.81496924  .00002879  00000-0  19887-3 0  9990,2 53886  53.2167 321.5100 0001036  82.6384 277.4726 15.08846083 34396,6917.862,95.437,540.443,539.01,0.0
53886.0,STARLINK-5028,PAYLOAD,2023-05-03 06:41:15,15.08843846,0.0001054,53.2153,319.4282,71.6139,288.4967,0.00012858,1.759e-05,0.0,0 STARLINK-5028,1 53886U 22119A   23123.27864947  .00001759  00000-0  12858-3 0  9992,2 53886  53.2153 319.4282 0001054  71.6139 288.4967 15.08843846 34049,6917.869,95.437,540.463,539.004,0.0
53886.0,STARLINK-5028,PAYLOAD,2023-05-03 13:02:48,15.08841291,0.0001238,53.2171,318.2393,81.8125,278.3007,0.00010897,1.447e-05,0.0,0 STARLINK-5028,1 53886U 22119A   23123.54361173  .00001447  00000-0  10897-3 0  9990,2 53886  53.2171 318.2393 0001238  81.8125 278.3007 15.08841291 34507,6917.876,95.437,540.598,538.885,0.0
53886.0,STARLINK-5028,PAYLOAD,2023-05-03 19:24:21,15.08823879,6.48e-05,53.2163,317.0498,57.6283,302.4772,-0.00015416,-2.739e-05,0.0,0 STARLINK-5028,1 53886U 22119A   23123.80858124 -.00002739  00000-0 -15416-3 0  9995,2 53886  53.2163 317.0498 0000648  57.6283 302.4772 15.08823879 34129,6917.93,95.439,540.243,539.346,0.0
53886.0,STARLINK-5028,PAYLOAD,2023-05-04 12:53:36,15.08831245,5.16e-05,53.217,313.776,114.4312,245.6734,-6.5772e-05,-1.334e-05,0.0,0 STARLINK-5028,1 53886U 22119A   23124.53722729 -.00001334  00000-0 -65772-4 0  9998,2 53886  53.2170 313.7760 0000516 114.4312 245.6734 15.08831245 34651,6917.907,95.438,540.129,539.415,0.0
53886.0,STARLINK-5028,PAYLOAD,2023-05-04 19:15:08,15.08842346,8.17e-05,53.216,312.5892,63.0352,297.0724,8.112e-05,1.004e-05,0.0,0 STARLINK-5028,1 53886U 22119A   23124.80217998  .00001004  00000-0  81120-4 0  9992,2 53886  53.2160 312.5892 0000817  63.0352 297.0724 15.08842346 34272,6917.873,95.437,540.303,539.173,0.0
53886.0,STARLINK-5028,PAYLOAD,2023-05-05 19:05:55,15.08869612,7.3e-05,53.2157,308.1278,62.7382,297.3685,0.00091717,0.00014351,0.0,0 STARLINK-5028,1 53886U 22119A   23125.79577722  .00014351  00000-0  91717-3 0  9996,2 53886  53.2157 308.1278 0000730  62.7382 297.3685 15.08869612 34421,6917.79,95.436,540.16,539.15,0.0
53886.0,STARLINK-5028,PAYLOAD,2023-05-06 15:45:55,15.08855904,6.67e-05,53.2156,304.2614,82.9055,277.2013,0.00031926,4.799e-05,0.0,0 STARLINK-5028,1 53886U 22119A   23126.65689132  .00004799  00000-0  31926-3 0  9992,2 53886  53.2156 304.2614 0000667  82.9055 277.2013 15.08855904 34972,6917.832,95.437,540.158,539.235,0.0
53886.0,STARLINK-5028,PAYLOAD,2023-05-06 20:32:04,15.08864066,7.15e-05,53.2155,303.3696,80.7472,279.3601,0.00066314,0.00010289,0.0,0 STARLINK-5028,1 53886U 22119A   23126.85560820  .00010289  00000-0  66314-3 0  9996,2 53886  53.2155 303.3696 0000715  80.7472 279.3601 15.08864066 34586,6917.807,95.436,540.166,539.177,0.0
53886.0,STARLINK-5028,PAYLOAD,2023-05-07 04:29:00,15.08841946,0.0001735,53.2153,301.8813,78.9902,281.1286,0.00016278,2.304e-05,0.0,0 STARLINK-5028,1 53886U 22119A   23127.18681492  .00002304  00000-0  16278-3 0  9995,2 53886  53.2153 301.8813 0001735  78.9902 281.1286 15.08841946 34636,6917.874,95.437,540.94,538.539,0.0
53886.0,STARLINK-5028,PAYLOAD,2023-05-07 18:47:28,15.08840756,7.61e-05,53.2152,299.2041,78.4834,281.6243,-8.4321e-06,-4.22e-06,0.0,0 STARLINK-5028,1 53886U 22119A   23127.78297257 -.00000422  00000-0 -84321-5 0  9990,2 53886  53.2152 299.2041 0000761  78.4834 281.6243 15.08840756 35148,6917.878,95.438,540.27,539.217,0.0
53886.0,STARLINK-5028,PAYLOAD,2023-05-08 04:19:47,15.08840537,7.85e-05,53.2151,297.4198,83.9933,276.1149,9.2975e-05,1.192e-05,0.0,0 STARLINK-5028,1 53886U 22119A   23128.18041316  .00001192  00000-0  92975-4 0  9994,2 53886  53.2151 297.4198 0000785  83.9933 276.1149 15.08840537 34787,6917.879,95.438,540.287,539.201,0.0
53886.0,STARLINK-5028,PAYLOAD,2023-05-08 18:38:15,15.08848331,7.25e-05,53.2151,294.7462,84.9881,275.1194,0.00034213,5.163e-05,0.0,0 STARLINK-5028,1 53886U 22119A   23128.77657252  .00005163  00000-0  34213-3 0  9993,2 53886  53.2151 294.7462 0000725  84.9881 275.1194 15.08848331 35294,6917.855,95.437,540.221,539.218,0.0
53886.0,STARLINK-5028,PAYLOAD,2023-05-09 04:10:34,15.08841495,7.56e-05,53.2155,292.9588,78.6613,281.4464,0.00023185,3.404e-05,0.0,0 STARLINK-5028,1 53886U 22119A   23129.17401511  .00003404  00000-0  23185-3 0  9995,2 53886  53.2155 292.9588 0000756  78.6613 281.4464 15.08841495 35355,6917.876,95.437,540.264,539.218,0.0
53886.0,STARLINK-5028,PAYLOAD,2023-05-10 04:01:21,15.08844251,7.09e-05,53.2157,288.5014,68.7725,291.3343,0.0001782,2.55e-05,0.0,0 STARLINK-5028,1 53886U 22119A   23130.16761574  .00002550  00000-0  17820-3 0  9994,2 53886  53.2157 288.5014 0000709  68.7725 291.3343 15.08844251 35500,6917.867,95.437,540.223,539.242,0.0
53886.0,STARLINK-5028,PAYLOAD,2023-05-10 18:19:50,15.08848904,6.82e-05,53.2159,285.8232,90.6083,269.4987,0.00026806,3.982e-05,0.0,0 STARLINK-5028,1 53886U 22119A   23130.76377394  .00003982  00000-0  26806-3 0  9997,2 53886  53.2159 285.8232 0000682  90.6083 269.4987 15.08848904 35593,6917.853,95.437,540.19,539.246,0.0
53886.0,STARLINK-5028,PAYLOAD,2023-05-11 03:52:08,15.0884538,7.53e-05,53.2162,284.0384,81.7172,278.3906,0.00019723,2.853e-05,0.0,0 STARLINK-5028,1 53886U 22119A   23131.16121468  .00002853  00000-0  19723-3 0  9997,2 53886  53.2162 284.0384 0000753  81.7172 278.3906 15.08845380 35231,6917.864,95.437,540.25,539.208,0.0
53886.0,STARLINK-5028,PAYLOAD,2023-05-11 16:35:14,15.08843319,8.41e-05,53.2161,281.6609,84.8222,275.2866,0.00016891,2.402e-05,0.0,0 STARLINK-5028,1 53886U 22119A   23131.69113606  .00002402  00000-0  16891-3 0  9993,2 53886  53.2161 281.6609 0000841  84.8222 275.2866 15.08843319 35737,6917.87,95.437,540.317,539.153,0.0
53886.0,STARLINK-5028,PAYLOAD,2023-05-12 16:26:01,15.08841083,7.82e-05,53.2164,277.1997,78.7879,281.3201,1.0956e-06,-2.7e-06,0.0,0 STARLINK-5028,1 53886U 22119A   23132.68473778 -.00000270  00000-0  10956-5 0  9992,2 53886  53.2164 277.1997 0000782  78.7879 281.3201 15.08841083 35461,6917.877,95.437,540.283,539.201,0.0
53886.0,STARLINK-5028,PAYLOAD,2023-05-13 13:06:02,15.08839704,8.05e-05,53.2153,273.3323,81.376,278.7323,9.9746e-05,1.3e-05,0.0,0 STARLINK-5028,1 53886U 22119A   23133.54585866  .00001300  00000-0  99746-4 0  9997,2 53886  53.2153 273.3323 0000805  81.3760 278.7323 15.08839704 36019,6917.881,95.438,540.303,539.189,0.0
53886.0,STARLINK-5028,PAYLOAD,2023-05-13 17:52:11,15.08849229,7.9e-05,53.2161,272.4432,76.3691,283.7389,0.00015512,2.183e-05,0.0,0 STARLINK-5028,1 53886U 22119A   23133.74457360  .00002183  00000-0  15512-3 0  9994,2 53886  53.2161 272.4432 0000790  76.3691 283.7389 15.08849229 35626,6917.852,95.437,540.264,539.171,0.0
